STARLINK-2215
1 18567C 21041Q   21326.13839256 -.00001797  00000-0 -12044-3 0  3263
2 18567  53.0548 343.1119 0001528  61.7232 224.0607 15.06396110    10
